{"type": "FeatureCollection", "features": [{"type": "Feature", "geometry": {"type": "Point", "coordinates": [107.62577958311, -6.9302225697855]}, "properties": {"ID_Bidang": "571", "sync_id": "c4400b67-6c5d-468b-9d52-c34fa8e6cbd7", "Surveyor": "Surveyor Penilaian Tanah 5", "Tanggal_Pelaksanaan": "2023-02-14", "Kd_Jenis_Bangunan": "S", "Alamat": "Jalan Percangka Nomor 6", "Kelurahan": "Lingkar Selatan", "Kecamatan": "Lengkong", "X": 107.62577958311, "Y": -6.9302225697855, "Status_Kepemilikan": "HM", "Jenis_Data": "Penawaran", "Tgl_Penawaran_Transaksi": "2023-02-15", "Harga_Penawaran_Transaksi": "66000000", "Luas_Tanah_m2": 197, "Lebar_Depan": 2, "Panjang": "99.00", "Bentuk_Tanah": "Persegi/Normal", "Elevasi_Dari_Jalan": "Lebih Tinggi", "Letak_Tanah": "Normal", "Kelas_Jalan": "Arteri", "Lebar_Jalan": 2, "Aksebilitas": "Sangat Baik", "Drainase": "Sangat Baik", "Utilitas": "Listrik,Telepon,Gas,TV Kabel", "Fasilitas": "Sekolah,Rumah Sakit,Pasar", "Zoning": 1, "Luas_Bangunan": 0, "Jumlah_Lantai": 0, "Tahun_Pembuatan": 0, "Tahun_Renovasi": 0, "Jumlah_Fasilitas": 3, "Keadaan_Fisik": "", "Biaya_Bangunan_m2": "", "RCN": "0", "Umur_Efektif": "2023", "Penyusutan": "0", "Nilai_Bangunan": "0", "Harga_Penyesuaian": "59400000", "Nilai_Bangunan_Rp": "0", "Harga_Tanah": "59400000", "Penyesuaian_Waktu": "0%", "Penyesuaian_Status_Kepemilikan": "0%", "nilluas": "64591397", "nilai": "327875", "akses": "Arteri", "Penyusutan_Rumah_1": "0%", "Penyusutan_Rumah_2": "0%", "Penyusutan_Ruko_1": "0%", "Penyusutan_Ruko_2": "0%", "Jenis": "", "Tahun_Penilaian": "2023"}}]}