{"type": "FeatureCollection", "features": [{"type": "Feature", "geometry": {"type": "Point", "coordinates": [107.62139166713276, -6.930077249414644]}, "properties": {"No_Kontrak": "6", "ID_Bidang": 549, "sync_id": "ed564963-9b2e-42d2-a42e-ce62edd91a35", "Surveyor": "Surveyor Penilaian Tanah 5", "Tanggal_Pelaksanaan": "2023-02-14", "Kd_Jenis_Bangunan": "B", "Alamat": "Jalan Mekarwangi Nomor 1", "Kelurahan": "Malabar", "Kecamatan": "Lengkong", "X": 107.62139166713276, "Y": -6.930077249414644, "Status_Kepemilikan": "HP", "Jenis_Data": "Penawaran", "Tgl_Penawaran_Transaksi": "2023-02-15", "Harga_Penawaran_Transaksi": "", "Luas_Tanah_m2": 222, "Lebar_Depan": 2, "Panjang": 111, "Bentuk_Tanah": "Persegi/Normal", "Elevasi_Dari_Jalan": "Lebih Tinggi", "Letak_Tanah": "Normal", "Kelas_Jalan": "Arteri", "Lebar_Jalan": 2, "Aksebilitas": "Sangat Baik", "Drainase": "Sangat Baik", "Utilitas": "Listrik,Air Bersih,Telepon,Gas,TV Kabel", "Fasilitas": "Sekolah,Tempat Ibadah,Rumah Sakit,Pasar", "Zoning": 2, "Luas_Bangunan": 0, "Jumlah_Lantai": 1, "Tahun_Pembuatan": 2003, "Tahun_Renovasi": 2003, "Jumlah_Fasilitas": 4, "Keadaan_Fisik": "BS", "Biaya_Bangunan_m2": "0", "RCN": "0", "Umur_Efektif": "20", "Penyusutan": "16", "Nilai_Bangunan": "0", "Harga_Penyesuaian": "", "Nilai_Bangunan_Rp": "0", "Harga_Tanah": "", "Penyesuaian_Waktu": "9%", "Penyesuaian_Status_Kepemilikan": "5%", "nilluas": "", "nilai": "", "akses": "Arteri", "Penyusutan_Rumah_1": "16%", "Penyusutan_Rumah_2": "15%", "Penyusutan_Ruko_1": "14%", "Penyusutan_Ruko_2": "13%", "Jenis": "", "Tahun_Penilaian": "2023", "Pembanding": ""}}, {"type": "Feature", "geometry": {"type": "Point", "coordinates": [107.62227208398652, -6.9290478304015375]}, "properties": {"No_Kontrak": "6", "ID_Bidang": 567, "sync_id": "4132e3c3-f31c-4031-860a-7a8c07c6718e", "Surveyor": "Surveyor Penilaian Tanah 5", "Tanggal_Pelaksanaan": "2023-02-14", "Kd_Jenis_Bangunan": "B", "Alamat": "Jalan Sarimadu Tengah 1", "Kelurahan": "Malabar", "Kecamatan": "Lengkong", "X": 107.62227208398652, "Y": -6.9290478304015375, "Status_Kepemilikan": "HM", "Jenis_Data": "Penawaran", "Tgl_Penawaran_Transaksi": "2023-02-15", "Harga_Penawaran_Transaksi": "", "Luas_Tanah_m2": 137, "Lebar_Depan": 2, "Panjang": 69, "Bentuk_Tanah": "Persegi/Normal", "Elevasi_Dari_Jalan": "Lebih Tinggi", "Letak_Tanah": "Normal", "Kelas_Jalan": "Kolektor", "Lebar_Jalan": 2, "Aksebilitas": "Sangat Baik", "Drainase": "Sangat Baik", "Utilitas": "Listrik,Air Bersih,Telepon,Gas,TV Kabel", "Fasilitas": "Sekolah,Tempat Ibadah,Rumah Sakit,Pasar", "Zoning": 2, "Luas_Bangunan": 28, "Jumlah_Lantai": 2, "Tahun_Pembuatan": 2001, "Tahun_Renovasi": 2001, "Jumlah_Fasilitas": 4, "Keadaan_Fisik": "J", "Biaya_Bangunan_m2": "850000", "RCN": "23800000", "Umur_Efektif": "22", "Penyusutan": "70", "Nilai_Bangunan": "7140000", "Harga_Penyesuaian": "", "Nilai_Bangunan_Rp": "7140000", "Harga_Tanah": "", "Penyesuaian_Waktu": "9%", "Penyesuaian_Status_Kepemilikan": "0%", "nilluas": "", "nilai": "", "akses": "Kolektor", "Penyusutan_Rumah_1": "70%", "Penyusutan_Rumah_2": "67%", "Penyusutan_Ruko_1": "66%", "Penyusutan_Ruko_2": "65%", "Jenis": "", "Tahun_Penilaian": "2023", "Pembanding": ""}}, {"type": "Feature", "geometry": {"type": "Point", "coordinates": [107.62089231110775, -6.929460129257723]}, "properties": {"No_Kontrak": "6", "ID_Bidang": 561, "sync_id": "a59d9d00-48d0-413e-96bf-e2d6ee9296e8", "Surveyor": "Surveyor Penilaian Tanah 5", "Tanggal_Pelaksanaan": "2023-02-14", "Kd_Jenis_Bangunan": "T", "Alamat": "Jalan Kenangan Nomor 9", "Kelurahan": "Malabar", "Kecamatan": "Lengkong", "X": 107.62089231110775, "Y": -6.929460129257723, "Status_Kepemilikan": "HP", "Jenis_Data": "Transaksi", "Tgl_Penawaran_Transaksi": "2023-02-15", "Harga_Penawaran_Transaksi": "", "Luas_Tanah_m2": 191, "Lebar_Depan": 2, "Panjang": 96, "Bentuk_Tanah": "Persegi/Normal", "Elevasi_Dari_Jalan": "Lebih Tinggi", "Letak_Tanah": "Tusuk Sate", "Kelas_Jalan": "Arteri", "Lebar_Jalan": 2, "Aksebilitas": "Sangat Baik", "Drainase": "Sangat Baik", "Utilitas": "Listrik,Air Bersih,Telepon,Gas,TV Kabel", "Fasilitas": "Sekolah,Tempat Ibadah,Rumah Sakit,Pasar", "Zoning": 1, "Luas_Bangunan": 0, "Jumlah_Lantai": 0, "Tahun_Pembuatan": 0, "Tahun_Renovasi": 0, "Jumlah_Fasilitas": 4, "Keadaan_Fisik": "-", "Biaya_Bangunan_m2": "", "RCN": "0", "Umur_Efektif": "2023", "Penyusutan": "0", "Nilai_Bangunan": "0", "Harga_Penyesuaian": "", "Nilai_Bangunan_Rp": "0", "Harga_Tanah": "", "Penyesuaian_Waktu": "9%", "Penyesuaian_Status_Kepemilikan": "5%", "nilluas": "", "nilai": "", "akses": "Arteri", "Penyusutan_Rumah_1": "0%", "Penyusutan_Rumah_2": "0%", "Penyusutan_Ruko_1": "0%", "Penyusutan_Ruko_2": "0%", "Jenis": "", "Tahun_Penilaian": "2023", "Pembanding": ""}}, {"type": "Feature", "geometry": {"type": "Point", "coordinates": [107.625779583112, -6.930222569785464]}, "properties": {"No_Kontrak": "6", "ID_Bidang": 571, "sync_id": "c4400b67-6c5d-468b-9d52-c34fa8e6cbd7", "Surveyor": "Surveyor Penilaian Tanah 5", "Tanggal_Pelaksanaan": "2023-02-14", "Kd_Jenis_Bangunan": "S", "Alamat": "Jalan Percangka Nomor 6", "Kelurahan": "Lingkar Selatan", "Kecamatan": "Lengkong", "X": 107.625779583112, "Y": -6.930222569785464, "Status_Kepemilikan": "HM", "Jenis_Data": "Penawaran", "Tgl_Penawaran_Transaksi": "2023-02-15", "Harga_Penawaran_Transaksi": "", "Luas_Tanah_m2": 197, "Lebar_Depan": 2, "Panjang": 99, "Bentuk_Tanah": "Persegi/Normal", "Elevasi_Dari_Jalan": "Lebih Tinggi", "Letak_Tanah": "Normal", "Kelas_Jalan": "Arteri", "Lebar_Jalan": 2, "Aksebilitas": "Sangat Baik", "Drainase": "Sangat Baik", "Utilitas": "Listrik,Telepon,Gas,TV Kabel", "Fasilitas": "Sekolah,Rumah Sakit,Pasar", "Zoning": 1, "Luas_Bangunan": 0, "Jumlah_Lantai": 0, "Tahun_Pembuatan": 0, "Tahun_Renovasi": 0, "Jumlah_Fasilitas": 3, "Keadaan_Fisik": "", "Biaya_Bangunan_m2": "", "RCN": "0", "Umur_Efektif": "2023", "Penyusutan": "0", "Nilai_Bangunan": "0", "Harga_Penyesuaian": "", "Nilai_Bangunan_Rp": "0", "Harga_Tanah": "", "Penyesuaian_Waktu": "9%", "Penyesuaian_Status_Kepemilikan": "0%", "nilluas": "", "nilai": "", "akses": "Arteri", "Penyusutan_Rumah_1": "0%", "Penyusutan_Rumah_2": "0%", "Penyusutan_Ruko_1": "0%", "Penyusutan_Ruko_2": "0%", "Jenis": "", "Tahun_Penilaian": "2023", "Pembanding": ""}}]}