{
  "type": "FeatureCollection",
  "features": [
    {
      "type": "Feature",
      "geometry": {
        "type": "Point",
        "coordinates": [109.27739993611, -7.3762907296021]
      },
      "properties": {
        "ID_Bidang": "519",
        "sync_id": "0edb7d9c-15b8-4572-b745-f0ea432cfe7b",
        "Surveyor": "Surveyor Penilaian Tanah 5",
        "Tanggal_Pelaksanaan": "2023-02-13",
        "Kd_Jenis_Bangunan": "TK",
        "Alamat": "Sarimadu Utara Nomor 7",
        "Kelurahan": "Bumi",
        "Kecamatan": "Laweyan",
        "X": 109.27739993611,
        "Y": -7.3762907296021,
        "Status_Kepemilikan": "K",
        "Jenis_Data": "Transaksi",
        "Tgl_Penawaran_Transaksi": "2023-02-13",
        "Harga_Penawaran_Transaksi": "119000000",
        "Luas_Tanah_m2": 2688,
        "Lebar_Depan": 2,
        "Panjang": "1344.00",
        "Bentuk_Tanah": "Persegi/Normal",
        "Elevasi_Dari_Jalan": "Lebih Tinggi",
        "Letak_Tanah": "Normal",
        "Kelas_Jalan": "Arteri",
        "Lebar_Jalan": 2,
        "Aksebilitas": "Cukup",
        "Drainase": "Baik",
        "Utilitas": "Air Bersih",
        "Fasilitas": "Pasar",
        "Zoning": 2,
        "Luas_Bangunan": 0,
        "Jumlah_Lantai": 0,
        "Tahun_Pembuatan": 0,
        "Tahun_Renovasi": 0,
        "Jumlah_Fasilitas": 1,
        "Keadaan_Fisik": "",
        "Biaya_Bangunan_m2": "",
        "RCN": "0",
        "Umur_Efektif": "2023",
        "Penyusutan": "0",
        "Nilai_Bangunan": "0",
        "Harga_Penyesuaian": "119000000",
        "Nilai_Bangunan_Rp": "0",
        "Harga_Tanah": "119000000",
        "Penyesuaian_Waktu": "0%",
        "Penyesuaian_Status_Kepemilikan": "0%",
        "nilluas": "129465479",
        "nilai": "48164",
        "akses": "Arteri",
        "Penyusutan_Rumah_1": "0%",
        "Penyusutan_Rumah_2": "0%",
        "Penyusutan_Ruko_1": "0%",
        "Penyusutan_Ruko_2": "0%",
        "Jenis": "",
        "Tahun_Penilaian": "2023"
      }
    }
  ]
}
