{"type": "FeatureCollection", "features": [{"type": "Feature", "geometry": {"type": "Point", "coordinates": [106.848188973963, -6.15411305488084]}, "properties": {"Nomor_Entry": 5, "No_Identifikasi": 1, "Surveyor": "Dianovita - XXWDL7K697", "Tanggal_Pelaksanaan": "R", "Kd_Jenis_Bangunan": "Mall MGK Kemayoran Blok F2", "Alamat": "Mall MGK Kemayoran Blok F2", "Kelurahan": "Kelurahan Gn. Sahari Selatan", "Kecamatan": "Kecamatan Kemayoran", "X": 106.848188973963, "Y": -6.15411305488084, "Status_Kepemilikan": "HGB", "Jenis_Data": "Transaksi", "Tgl_Penawaran_Transaksi": "2025-08-13", "Harga_Penawaran_Transaksi": 100000000000.0, "Luas_Tanah_m2": 36.0, "Lebar_Depan": 6.0, "Panjang_Kebelakang": 6.0, "Bentuk_Tanah": "Persegi/Normal", "Elevasi_Dari_Jalan": "Sama", "Letak_Tanah": "Huk", "Kelas_Jalan": "Lokal", "Lebar_Jalan": 5.0, "Aksebilitas": "Baik", "Drainase": "Baik", "Utilitas": "Air BersihGasListrikTV KabelTelepon", "Fasilitas": "Rumah Sakit", "Zoning": 1, "Luas_Bangunan": 7000.0, "Jenis": "Komersial", "Jumlah_Lantai": 1, "Tahun_Pembuatan": 2000, "Tahun_Renovasi": 2005, "Kontruksi_Atas": "Baja", "Kontruksi_bawah": "Beton", "Atap": "Beton/Dak", "Dinding": "Beton/Celcon", "LangitLangit": "Gypsum", "Lantai": "Keramik", "Pagar": "Besi Tempa", "Panjang_Pagar": 5.0, "Luas_Carport": 5.0, "Pintu_Jendela": "Aluminium", "Jumlah_Fasilitas": 1.0, "Keadaan_Fisik": 0.0, "Biaya_Bangunan_m2": 25000000.0, "RCN": 175000000000.0, "Tahun_Penilaian": 2025, "Umur_Efektif": 22.0, "Penyusutan": 49.0, "Nilai_Bangunan": 89250000000.0, "Harga_Penyesuaian": 100000000000.0, "Nilai_Bangunan_Rp": 89250000000.0, "Harga_Tanah_Rp": "Rp. 10,750,000,000", "Penyesuaian_Waktu": 3.83561643835616, "Penyesuaian_Status_Kepemilikan": 5.0, "nilluas": 11699828767.1233, "nilai": 324995243.531202, "akses": "Lokal", "Penyusutan_Rumah": 50.0, "Penyusutan_Ruko": 49.0, "Keterangan": "", "Pembanding": "", "Penyusutan_Rumah_1": 52.0, "Penyusutan_Rumah_2": 50.0, "Penyusutan_Ruko_1": 51.0, "Penyusutan_Ruko_2": 49.0, "N.Sementara": "", "Responden": ""}}, {"type": "Feature", "geometry": {"type": "Point", "coordinates": [106.848808899522, -6.15359837153063]}, "properties": {"Nomor_Entry": 6, "No_Identifikasi": 1, "Surveyor": "Dianovita - YHSE20SD3J", "Tanggal_Pelaksanaan": "TK", "Kd_Jenis_Bangunan": "Jalan Gunung Sahari", "Alamat": "Jalan Gunung Sahari", "Kelurahan": "Kelurahan Gn. Sahari Selatan", "Kecamatan": "Kecamatan Kemayoran", "X": 106.848808899522, "Y": -6.15359837153063, "Status_Kepemilikan": "HM", "Jenis_Data": "Transaksi", "Tgl_Penawaran_Transaksi": "2025-01-08", "Harga_Penawaran_Transaksi": 800000000.0, "Luas_Tanah_m2": 1000.0, "Lebar_Depan": 25.0, "Panjang_Kebelakang": 40.0, "Bentuk_Tanah": "Persegi/Normal", "Elevasi_Dari_Jalan": "Sama", "Letak_Tanah": "Normal", "Kelas_Jalan": "Lokal", "Lebar_Jalan": 2.0, "Aksebilitas": "Cukup", "Drainase": "Baik", "Utilitas": "Air BersihListrik", "Fasilitas": "", "Zoning": 2, "Luas_Bangunan": 0.0, "Jenis": "", "Jumlah_Lantai": 0, "Tahun_Pembuatan": 0, "Tahun_Renovasi": 0, "Kontruksi_Atas": "", "Kontruksi_bawah": "", "Atap": "", "Dinding": "", "LangitLangit": "", "Lantai": "", "Pagar": "", "Panjang_Pagar": 0.0, "Luas_Carport": 0.0, "Pintu_Jendela": "", "Jumlah_Fasilitas": 0.0, "Keadaan_Fisik": 0.0, "Biaya_Bangunan_m2": 0.0, "RCN": 0.0, "Tahun_Penilaian": 2025, "Umur_Efektif": 2025.0, "Penyusutan": 0.0, "Nilai_Bangunan": 0.0, "Harga_Penyesuaian": 800000000.0, "Nilai_Bangunan_Rp": 0.0, "Harga_Tanah_Rp": "Rp. 800,000,000", "Penyesuaian_Waktu": 9.78082191780822, "Penyesuaian_Status_Kepemilikan": 0.0, "nilluas": 878246575.342466, "nilai": 878246.575342466, "akses": "Lokal", "Penyusutan_Rumah": 0.0, "Penyusutan_Ruko": 0.0, "Keterangan": "", "Pembanding": "", "Penyusutan_Rumah_1": 0.0, "Penyusutan_Rumah_2": 0.0, "Penyusutan_Ruko_1": 0.0, "Penyusutan_Ruko_2": 0.0, "N.Sementara": "", "Responden": ""}}, {"type": "Feature", "geometry": {"type": "Point", "coordinates": [106.850009523332, -6.15326536047044]}, "properties": {"Nomor_Entry": 7, "No_Identifikasi": 1, "Surveyor": "Dianovita - V14DJK4QDH", "Tanggal_Pelaksanaan": "TK", "Kd_Jenis_Bangunan": "jalan akb rthnfdgjm", "Alamat": "jalan akb rthnfdgjm", "Kelurahan": "Kelurahan Kemayoran", "Kecamatan": "Kecamatan Kemayoran", "X": 106.850009523332, "Y": -6.15326536047044, "Status_Kepemilikan": "HP", "Jenis_Data": "Penawaran", "Tgl_Penawaran_Transaksi": "2025-08-14", "Harga_Penawaran_Transaksi": 200000000.0, "Luas_Tanah_m2": 25.0, "Lebar_Depan": 5.0, "Panjang_Kebelakang": 5.0, "Bentuk_Tanah": "Persegi/Normal", "Elevasi_Dari_Jalan": "Sama", "Letak_Tanah": "Normal", "Kelas_Jalan": "Lokal", "Lebar_Jalan": 7.0, "Aksebilitas": "Baik", "Drainase": "Cukup", "Utilitas": "Air BersihGasListrikTV KabelTelepon", "Fasilitas": "", "Zoning": 2, "Luas_Bangunan": 0.0, "Jenis": "", "Jumlah_Lantai": 0, "Tahun_Pembuatan": 0, "Tahun_Renovasi": 0, "Kontruksi_Atas": "", "Kontruksi_bawah": "", "Atap": "", "Dinding": "", "LangitLangit": "", "Lantai": "", "Pagar": "", "Panjang_Pagar": 0.0, "Luas_Carport": 0.0, "Pintu_Jendela": "", "Jumlah_Fasilitas": 0.0, "Keadaan_Fisik": 0.0, "Biaya_Bangunan_m2": 0.0, "RCN": 0.0, "Tahun_Penilaian": 2025, "Umur_Efektif": 2025.0, "Penyusutan": 0.0, "Nilai_Bangunan": 0.0, "Harga_Penyesuaian": 180000000.0, "Nilai_Bangunan_Rp": 0.0, "Harga_Tanah_Rp": "Rp. 180,000,000", "Penyesuaian_Waktu": 3.80821917808219, "Penyesuaian_Status_Kepemilikan": 5.0, "nilluas": 195854794.520548, "nilai": 7834191.78082192, "akses": "Lokal", "Penyusutan_Rumah": 0.0, "Penyusutan_Ruko": 0.0, "Keterangan": "", "Pembanding": "", "Penyusutan_Rumah_1": 0.0, "Penyusutan_Rumah_2": 0.0, "Penyusutan_Ruko_1": 0.0, "Penyusutan_Ruko_2": 0.0, "N.Sementara": "", "Responden": ""}}, {"type": "Feature", "geometry": {"type": "Point", "coordinates": [106.850427612662, -6.15492408015867]}, "properties": {"Nomor_Entry": 9, "No_Identifikasi": 1, "Surveyor": "Dianovita - V14DJK4QDH", "Tanggal_Pelaksanaan": "B", "Kd_Jenis_Bangunan": "htb", "Alamat": "htb", "Kelurahan": "Kelurahan Kemayoran", "Kecamatan": "Kecamatan Kemayoran", "X": 106.850427612662, "Y": -6.15492408015867, "Status_Kepemilikan": "HM", "Jenis_Data": "Transaksi", "Tgl_Penawaran_Transaksi": "2025-08-14", "Harga_Penawaran_Transaksi": 100000000.0, "Luas_Tanah_m2": 200.0, "Lebar_Depan": 900.0, "Panjang_Kebelakang": 0.0, "Bentuk_Tanah": "Persegi/Normal", "Elevasi_Dari_Jalan": "Sama", "Letak_Tanah": "Normal", "Kelas_Jalan": "Lokal", "Lebar_Jalan": 20.0, "Aksebilitas": "Cukup", "Drainase": "Cukup", "Utilitas": "Listrik", "Fasilitas": "Sekolah", "Zoning": 1, "Luas_Bangunan": 30.0, "Jenis": "Pemukiman", "Jumlah_Lantai": 1, "Tahun_Pembuatan": 22, "Tahun_Renovasi": 22, "Kontruksi_Atas": "Beton", "Kontruksi_bawah": "Beton", "Atap": "Genteng Tanah Liat", "Dinding": "Bata Merah", "LangitLangit": "Gypsum", "Lantai": "Granit", "Pagar": "Besi Tempa", "Panjang_Pagar": 22.0, "Luas_Carport": 3.0, "Pintu_Jendela": "Aluminium", "Jumlah_Fasilitas": 1.0, "Keadaan_Fisik": 0.0, "Biaya_Bangunan_m2": 2000000.0, "RCN": 60000000.0, "Tahun_Penilaian": 2025, "Umur_Efektif": 2003.0, "Penyusutan": 52.0, "Nilai_Bangunan": 28800000.0, "Harga_Penyesuaian": 100000000.0, "Nilai_Bangunan_Rp": 28800000.0, "Harga_Tanah_Rp": "Rp. 71,200,000", "Penyesuaian_Waktu": 3.80821917808219, "Penyesuaian_Status_Kepemilikan": 0.0, "nilluas": 73911452.0547945, "nilai": 369557.260273973, "akses": "Lokal", "Penyusutan_Rumah": 52.0, "Penyusutan_Ruko": 51.0, "Keterangan": "", "Pembanding": "", "Penyusutan_Rumah_1": 52.0, "Penyusutan_Rumah_2": 50.0, "Penyusutan_Ruko_1": 51.0, "Penyusutan_Ruko_2": 49.0, "N.Sementara": "", "Responden": ""}}, {"type": "Feature", "geometry": {"type": "Point", "coordinates": [106.847844645381, -6.15381237852824]}, "properties": {"Nomor_Entry": 11, "No_Identifikasi": 1, "Surveyor": "Dianovita - XXWDL7K697", "Tanggal_Pelaksanaan": "TK", "Kd_Jenis_Bangunan": "Mall MGK Kemayoran Blok F2", "Alamat": "Mall MGK Kemayoran Blok F2", "Kelurahan": "Kelurahan Gn. Sahari Selatan", "Kecamatan": "Kecamatan Kemayoran", "X": 106.847844645381, "Y": -6.15381237852824, "Status_Kepemilikan": "HM", "Jenis_Data": "Penawaran", "Tgl_Penawaran_Transaksi": "2025-08-14", "Harga_Penawaran_Transaksi": 5000000000.0, "Luas_Tanah_m2": 100.0, "Lebar_Depan": 10.0, "Panjang_Kebelakang": 10.0, "Bentuk_Tanah": "Persegi/Normal", "Elevasi_Dari_Jalan": "Sama", "Letak_Tanah": "Normal", "Kelas_Jalan": "Kolektor", "Lebar_Jalan": 8.0, "Aksebilitas": "Baik", "Drainase": "Baik", "Utilitas": "Air BersihGasListrikTelepon", "Fasilitas": "PasarRumah SakitSekolahTempat Ibadah", "Zoning": 2, "Luas_Bangunan": 0.0, "Jenis": "Komersial", "Jumlah_Lantai": 1, "Tahun_Pembuatan": 2010, "Tahun_Renovasi": 2010, "Kontruksi_Atas": "Kayu", "Kontruksi_bawah": "Beton", "Atap": "Genteng Beton", "Dinding": "Beton/Celcon", "LangitLangit": "Gypsum", "Lantai": "Keramik", "Pagar": "Lainnya", "Panjang_Pagar": 0.0, "Luas_Carport": 0.0, "Pintu_Jendela": "Kayu", "Jumlah_Fasilitas": 4.0, "Keadaan_Fisik": 0.0, "Biaya_Bangunan_m2": 0.0, "RCN": 0.0, "Tahun_Penilaian": 2025, "Umur_Efektif": 15.0, "Penyusutan": 0.0, "Nilai_Bangunan": 0.0, "Harga_Penyesuaian": 4500000000.0, "Nilai_Bangunan_Rp": 0.0, "Harga_Tanah_Rp": "Rp. 4,500,000,000", "Penyesuaian_Waktu": 3.80821917808219, "Penyesuaian_Status_Kepemilikan": 0.0, "nilluas": 4671369863.0137, "nilai": 46713698.630137, "akses": "Kolektor", "Penyusutan_Rumah": 34.0, "Penyusutan_Ruko": 30.0, "Keterangan": "", "Pembanding": "", "Penyusutan_Rumah_1": 34.0, "Penyusutan_Rumah_2": 32.0, "Penyusutan_Ruko_1": 30.0, "Penyusutan_Ruko_2": 28.0, "N.Sementara": "", "Responden": ""}}, {"type": "Feature", "geometry": {"type": "Point", "coordinates": [106.849999465048, -6.15464873838235]}, "properties": {"Nomor_Entry": 13, "No_Identifikasi": 1, "Surveyor": "Dianovita - 9M01AXAI34", "Tanggal_Pelaksanaan": "R", "Kd_Jenis_Bangunan": "Jl. Ardian", "Alamat": "Jl. Ardian", "Kelurahan": "Kelurahan Kemayoran", "Kecamatan": "Kecamatan Kemayoran", "X": 106.849999465048, "Y": -6.15464873838235, "Status_Kepemilikan": "HGB", "Jenis_Data": "Penawaran", "Tgl_Penawaran_Transaksi": "2025-08-14", "Harga_Penawaran_Transaksi": 1500000000.0, "Luas_Tanah_m2": 100.0, "Lebar_Depan": 10.0, "Panjang_Kebelakang": 10.0, "Bentuk_Tanah": "Persegi/Normal", "Elevasi_Dari_Jalan": "Sama", "Letak_Tanah": "Huk", "Kelas_Jalan": "Arteri", "Lebar_Jalan": 10.0, "Aksebilitas": "Sangat Baik", "Drainase": "Sangat Baik", "Utilitas": "Air BersihGasListrikTelepon", "Fasilitas": "PasarRumah SakitSekolahTempat Ibadah", "Zoning": 1, "Luas_Bangunan": 70.0, "Jenis": "Komersial", "Jumlah_Lantai": 1, "Tahun_Pembuatan": 2010, "Tahun_Renovasi": 2010, "Kontruksi_Atas": "Kayu", "Kontruksi_bawah": "Beton", "Atap": "Genteng Beton", "Dinding": "Beton/Celcon", "LangitLangit": "Gypsum", "Lantai": "Keramik", "Pagar": "Lainnya", "Panjang_Pagar": 0.0, "Luas_Carport": 0.0, "Pintu_Jendela": "Kayu", "Jumlah_Fasilitas": 4.0, "Keadaan_Fisik": 0.0, "Biaya_Bangunan_m2": 5000000.0, "RCN": 350000000.0, "Tahun_Penilaian": 2025, "Umur_Efektif": 15.0, "Penyusutan": 28.0, "Nilai_Bangunan": 252000000.0, "Harga_Penyesuaian": 1350000000.0, "Nilai_Bangunan_Rp": 252000000.0, "Harga_Tanah_Rp": "Rp. 1,098,000,000", "Penyesuaian_Waktu": 3.80821917808219, "Penyesuaian_Status_Kepemilikan": 5.0, "nilluas": 1194714246.57534, "nilai": 11947142.4657534, "akses": "Arteri", "Penyusutan_Rumah": 32.0, "Penyusutan_Ruko": 28.0, "Keterangan": "", "Pembanding": "", "Penyusutan_Rumah_1": 34.0, "Penyusutan_Rumah_2": 32.0, "Penyusutan_Ruko_1": 30.0, "Penyusutan_Ruko_2": 28.0, "N.Sementara": "", "Responden": ""}}, {"type": "Feature", "geometry": {"type": "Point", "coordinates": [106.847699806094, -6.15410238787345]}, "properties": {"Nomor_Entry": 15, "No_Identifikasi": 1, "Surveyor": "Dianovita - XXWDL7K697", "Tanggal_Pelaksanaan": "TK", "Kd_Jenis_Bangunan": "Mall MGK Kemayoran Blok F2", "Alamat": "Mall MGK Kemayoran Blok F2", "Kelurahan": "Kelurahan Gn. Sahari Selatan", "Kecamatan": "Kecamatan Kemayoran", "X": 106.847699806094, "Y": -6.15410238787345, "Status_Kepemilikan": "HM", "Jenis_Data": "Penawaran", "Tgl_Penawaran_Transaksi": "2025-08-14", "Harga_Penawaran_Transaksi": 30000000000.0, "Luas_Tanah_m2": 100.0, "Lebar_Depan": 10.0, "Panjang_Kebelakang": 10.0, "Bentuk_Tanah": "Persegi/Normal", "Elevasi_Dari_Jalan": "Sama", "Letak_Tanah": "Normal", "Kelas_Jalan": "Lokal", "Lebar_Jalan": 8.0, "Aksebilitas": "Baik", "Drainase": "Baik", "Utilitas": "Air BersihListrikTelepon", "Fasilitas": "PasarSekolahTempat Ibadah", "Zoning": 1, "Luas_Bangunan": 0.0, "Jenis": "Pemukiman", "Jumlah_Lantai": 0, "Tahun_Pembuatan": 0, "Tahun_Renovasi": 0, "Kontruksi_Atas": "Beton", "Kontruksi_bawah": "Beton", "Atap": "Beton/Dak", "Dinding": "Beton/Celcon", "LangitLangit": "Gypsum", "Lantai": "Keramik", "Pagar": "Besi Tempa", "Panjang_Pagar": 0.0, "Luas_Carport": 0.0, "Pintu_Jendela": "Aluminium", "Jumlah_Fasilitas": 3.0, "Keadaan_Fisik": 0.0, "Biaya_Bangunan_m2": 0.0, "RCN": 0.0, "Tahun_Penilaian": 2025, "Umur_Efektif": 2025.0, "Penyusutan": 0.0, "Nilai_Bangunan": 0.0, "Harga_Penyesuaian": 27000000000.0, "Nilai_Bangunan_Rp": 0.0, "Harga_Tanah_Rp": "Rp. 27,000,000,000", "Penyesuaian_Waktu": 3.80821917808219, "Penyesuaian_Status_Kepemilikan": 0.0, "nilluas": 28028219178.0822, "nilai": 280282191.780822, "akses": "Lokal", "Penyusutan_Rumah": 34.0, "Penyusutan_Ruko": 30.0, "Keterangan": "", "Pembanding": "", "Penyusutan_Rumah_1": 34.0, "Penyusutan_Rumah_2": 32.0, "Penyusutan_Ruko_1": 30.0, "Penyusutan_Ruko_2": 28.0, "N.Sementara": "", "Responden": ""}}, {"type": "Feature", "geometry": {"type": "Point", "coordinates": [106.849787570536, -6.15363703946804]}, "properties": {"Nomor_Entry": 16, "No_Identifikasi": 1, "Surveyor": "Dianovita - YHSE20SD3J", "Tanggal_Pelaksanaan": "R", "Kd_Jenis_Bangunan": "Jalan Sahari", "Alamat": "Jalan Sahari", "Kelurahan": "Kelurahan Gn. Sahari Selatan", "Kecamatan": "Kecamatan Kemayoran", "X": 106.849787570536, "Y": -6.15363703946804, "Status_Kepemilikan": "HM", "Jenis_Data": "Penawaran", "Tgl_Penawaran_Transaksi": "2025-08-14", "Harga_Penawaran_Transaksi": 1000000000.0, "Luas_Tanah_m2": 100.0, "Lebar_Depan": 8.0, "Panjang_Kebelakang": 13.0, "Bentuk_Tanah": "Persegi/Normal", "Elevasi_Dari_Jalan": "Sama", "Letak_Tanah": "Normal", "Kelas_Jalan": "Kolektor", "Lebar_Jalan": 4.0, "Aksebilitas": "Sangat Baik", "Drainase": "Sangat Baik", "Utilitas": "Air BersihGasListrikTV KabelTelepon", "Fasilitas": "PasarRumah SakitSekolahTempat Ibadah", "Zoning": 1, "Luas_Bangunan": 100.0, "Jenis": "Komersial", "Jumlah_Lantai": 1, "Tahun_Pembuatan": 1995, "Tahun_Renovasi": 2005, "Kontruksi_Atas": "Beton", "Kontruksi_bawah": "Beton", "Atap": "Genteng Beton", "Dinding": "Beton/Celcon", "LangitLangit": "Gypsum", "Lantai": "Keramik", "Pagar": "Lainnya", "Panjang_Pagar": 0.0, "Luas_Carport": 0.0, "Pintu_Jendela": "Aluminium", "Jumlah_Fasilitas": 4.0, "Keadaan_Fisik": 0.0, "Biaya_Bangunan_m2": 3500000.0, "RCN": 350000000.0, "Tahun_Penilaian": 2025, "Umur_Efektif": 24.0, "Penyusutan": 49.0, "Nilai_Bangunan": 178500000.0, "Harga_Penyesuaian": 900000000.0, "Nilai_Bangunan_Rp": 178500000.0, "Harga_Tanah_Rp": "Rp. 721,500,000", "Penyesuaian_Waktu": 3.80821917808219, "Penyesuaian_Status_Kepemilikan": 0.0, "nilluas": 748976301.369863, "nilai": 7489763.01369863, "akses": "Kolektor", "Penyusutan_Rumah": 50.0, "Penyusutan_Ruko": 49.0, "Keterangan": "", "Pembanding": "", "Penyusutan_Rumah_1": 52.0, "Penyusutan_Rumah_2": 50.0, "Penyusutan_Ruko_1": 51.0, "Penyusutan_Ruko_2": 49.0, "N.Sementara": "", "Responden": ""}}, {"type": "Feature", "geometry": {"type": "Point", "coordinates": [106.848220154643, -6.15462373760867]}, "properties": {"Nomor_Entry": 19, "No_Identifikasi": 1, "Surveyor": "Dianovita - XXWDL7K697", "Tanggal_Pelaksanaan": "B", "Kd_Jenis_Bangunan": "Mall MGK Kemayoran Blok F2", "Alamat": "Mall MGK Kemayoran Blok F2", "Kelurahan": "Kelurahan Gn. Sahari Selatan", "Kecamatan": "Kecamatan Kemayoran", "X": 106.848220154643, "Y": -6.15462373760867, "Status_Kepemilikan": "HM", "Jenis_Data": "Penawaran", "Tgl_Penawaran_Transaksi": "2025-08-14", "Harga_Penawaran_Transaksi": 90000000000.0, "Luas_Tanah_m2": 100.0, "Lebar_Depan": 10.0, "Panjang_Kebelakang": 10.0, "Bentuk_Tanah": "Persegi/Normal", "Elevasi_Dari_Jalan": "Sama", "Letak_Tanah": "Huk", "Kelas_Jalan": "Lokal", "Lebar_Jalan": 8.0, "Aksebilitas": "Baik", "Drainase": "Baik", "Utilitas": "Air BersihGasListrikTelepon", "Fasilitas": "Tempat Ibadah", "Zoning": 1, "Luas_Bangunan": 500.0, "Jenis": "Pemukiman", "Jumlah_Lantai": 1, "Tahun_Pembuatan": 2009, "Tahun_Renovasi": 2015, "Kontruksi_Atas": "Beton", "Kontruksi_bawah": "Beton", "Atap": "Beton/Dak", "Dinding": "Beton/Celcon", "LangitLangit": "Gypsum", "Lantai": "Keramik", "Pagar": "Besi Tempa", "Panjang_Pagar": 5.0, "Luas_Carport": 3.0, "Pintu_Jendela": "Aluminium", "Jumlah_Fasilitas": 1.0, "Keadaan_Fisik": 0.0, "Biaya_Bangunan_m2": 25000000.0, "RCN": 12500000000.0, "Tahun_Penilaian": 2025, "Umur_Efektif": 12.0, "Penyusutan": 32.0, "Nilai_Bangunan": 8500000000.0, "Harga_Penyesuaian": 81000000000.0, "Nilai_Bangunan_Rp": 8500000000.0, "Harga_Tanah_Rp": "Rp. 72,500,000,000", "Penyesuaian_Waktu": 3.80821917808219, "Penyesuaian_Status_Kepemilikan": 0.0, "nilluas": 75260958904.1096, "nilai": 752609589.041096, "akses": "Lokal", "Penyusutan_Rumah": 32.0, "Penyusutan_Ruko": 28.0, "Keterangan": "", "Pembanding": "", "Penyusutan_Rumah_1": 34.0, "Penyusutan_Rumah_2": 32.0, "Penyusutan_Ruko_1": 30.0, "Penyusutan_Ruko_2": 28.0, "N.Sementara": "", "Responden": ""}}, {"type": "Feature", "geometry": {"type": "Point", "coordinates": [106.849780529738, -6.15533709255563]}, "properties": {"Nomor_Entry": 20, "No_Identifikasi": 1, "Surveyor": "Dianovita - 9M01AXAI34", "Tanggal_Pelaksanaan": "TK", "Kd_Jenis_Bangunan": "Jl. Sasak 3", "Alamat": "Jl. Sasak 3", "Kelurahan": "Kelurahan Kemayoran", "Kecamatan": "Kecamatan Kemayoran", "X": 106.849780529738, "Y": -6.15533709255563, "Status_Kepemilikan": "HM", "Jenis_Data": "Penawaran", "Tgl_Penawaran_Transaksi": "2025-08-14", "Harga_Penawaran_Transaksi": 500000000.0, "Luas_Tanah_m2": 100.0, "Lebar_Depan": 10.0, "Panjang_Kebelakang": 10.0, "Bentuk_Tanah": "Persegi/Normal", "Elevasi_Dari_Jalan": "Sama", "Letak_Tanah": "Normal", "Kelas_Jalan": "Kolektor", "Lebar_Jalan": 6.0, "Aksebilitas": "Baik", "Drainase": "Sangat Baik", "Utilitas": "Air Bersih", "Fasilitas": "PasarRumah SakitSekolahTempat Ibadah", "Zoning": 2, "Luas_Bangunan": 100.0, "Jenis": "Komersial", "Jumlah_Lantai": 1, "Tahun_Pembuatan": 1995, "Tahun_Renovasi": 2005, "Kontruksi_Atas": "Beton", "Kontruksi_bawah": "Beton", "Atap": "Genteng Beton", "Dinding": "Beton/Celcon", "LangitLangit": "Gypsum", "Lantai": "Keramik", "Pagar": "Lainnya", "Panjang_Pagar": 0.0, "Luas_Carport": 0.0, "Pintu_Jendela": "Aluminium", "Jumlah_Fasilitas": 4.0, "Keadaan_Fisik": 0.0, "Biaya_Bangunan_m2": 0.0, "RCN": 0.0, "Tahun_Penilaian": 2025, "Umur_Efektif": 24.0, "Penyusutan": 0.0, "Nilai_Bangunan": 0.0, "Harga_Penyesuaian": 450000000.0, "Nilai_Bangunan_Rp": 0.0, "Harga_Tanah_Rp": "Rp. 450,000,000", "Penyesuaian_Waktu": 3.80821917808219, "Penyesuaian_Status_Kepemilikan": 0.0, "nilluas": 467136986.30137, "nilai": 4671369.8630137, "akses": "Kolektor", "Penyusutan_Rumah": 52.0, "Penyusutan_Ruko": 51.0, "Keterangan": "", "Pembanding": "", "Penyusutan_Rumah_1": 52.0, "Penyusutan_Rumah_2": 50.0, "Penyusutan_Ruko_1": 51.0, "Penyusutan_Ruko_2": 49.0, "N.Sementara": "", "Responden": ""}}, {"type": "Feature", "geometry": {"type": "Point", "coordinates": [106.850131899118, -6.15459840349014]}, "properties": {"Nomor_Entry": 23, "No_Identifikasi": 1, "Surveyor": "Dianovita - V14DJK4QDH", "Tanggal_Pelaksanaan": "B", "Kd_Jenis_Bangunan": "abc 123", "Alamat": "abc 123", "Kelurahan": "Kelurahan Harapan Mulia", "Kecamatan": "Kecamatan Kemayoran", "X": 106.850131899118, "Y": -6.15459840349014, "Status_Kepemilikan": "HM", "Jenis_Data": "Penawaran", "Tgl_Penawaran_Transaksi": "2025-08-14", "Harga_Penawaran_Transaksi": 2500000000.0, "Luas_Tanah_m2": 120.0, "Lebar_Depan": 10.0, "Panjang_Kebelakang": 12.0, "Bentuk_Tanah": "Persegi/Normal", "Elevasi_Dari_Jalan": "Sama", "Letak_Tanah": "Normal", "Kelas_Jalan": "Kolektor", "Lebar_Jalan": 10.0, "Aksebilitas": "Baik", "Drainase": "Cukup", "Utilitas": "Air BersihGasListrikTV KabelTelepon", "Fasilitas": "PasarRumah SakitSekolahTempat Ibadah", "Zoning": 1, "Luas_Bangunan": 160.0, "Jenis": "Pemukiman", "Jumlah_Lantai": 1, "Tahun_Pembuatan": 2018, "Tahun_Renovasi": 2018, "Kontruksi_Atas": "Baja", "Kontruksi_bawah": "Beton", "Atap": "Beton/Dak", "Dinding": "Bata Merah", "LangitLangit": "Gypsum", "Lantai": "Granit", "Pagar": "Bata/Batako", "Panjang_Pagar": 12.0, "Luas_Carport": 4.0, "Pintu_Jendela": "Aluminium", "Jumlah_Fasilitas": 4.0, "Keadaan_Fisik": 0.0, "Biaya_Bangunan_m2": 800000.0, "RCN": 128000000.0, "Tahun_Penilaian": 2025, "Umur_Efektif": 7.0, "Penyusutan": 24.0, "Nilai_Bangunan": 97280000.0, "Harga_Penyesuaian": 2250000000.0, "Nilai_Bangunan_Rp": 97280000.0, "Harga_Tanah_Rp": "Rp. 2,152,720,000", "Penyesuaian_Waktu": 3.80821917808219, "Penyesuaian_Status_Kepemilikan": 0.0, "nilluas": 2234700295.89041, "nilai": 18622502.4657534, "akses": "Kolektor", "Penyusutan_Rumah": 24.0, "Penyusutan_Ruko": 23.0, "Keterangan": "", "Pembanding": "", "Penyusutan_Rumah_1": 24.0, "Penyusutan_Rumah_2": 22.0, "Penyusutan_Ruko_1": 23.0, "Penyusutan_Ruko_2": 17.0, "N.Sementara": "", "Responden": ""}}, {"type": "Feature", "geometry": {"type": "Point", "coordinates": [106.84979159385, -6.15374337628142]}, "properties": {"Nomor_Entry": 24, "No_Identifikasi": 1, "Surveyor": "Dianovita - YHSE20SD3J", "Tanggal_Pelaksanaan": "B", "Kd_Jenis_Bangunan": "Jl. Kemayoran 3", "Alamat": "Jl. Kemayoran 3", "Kelurahan": "Kelurahan Kemayoran", "Kecamatan": "Kecamatan Kemayoran", "X": 106.84979159385, "Y": -6.15374337628142, "Status_Kepemilikan": "HM", "Jenis_Data": "Penawaran", "Tgl_Penawaran_Transaksi": "2025-08-14", "Harga_Penawaran_Transaksi": 5000000000.0, "Luas_Tanah_m2": 150.0, "Lebar_Depan": 15.0, "Panjang_Kebelakang": 10.0, "Bentuk_Tanah": "Persegi/Normal", "Elevasi_Dari_Jalan": "Sama", "Letak_Tanah": "Huk", "Kelas_Jalan": "Arteri", "Lebar_Jalan": 12.0, "Aksebilitas": "Sangat Baik", "Drainase": "Sangat Baik", "Utilitas": "Air BersihGasListrikTelepon", "Fasilitas": "PasarRumah SakitSekolahTempat Ibadah", "Zoning": 1, "Luas_Bangunan": 100.0, "Jenis": "Pemukiman", "Jumlah_Lantai": 1, "Tahun_Pembuatan": 2015, "Tahun_Renovasi": 2025, "Kontruksi_Atas": "Beton", "Kontruksi_bawah": "Beton", "Atap": "Genteng Beton", "Dinding": "Beton/Celcon", "LangitLangit": "Gypsum", "Lantai": "Keramik", "Pagar": "Beton", "Panjang_Pagar": 7.0, "Luas_Carport": 6.0, "Pintu_Jendela": "Kayu", "Jumlah_Fasilitas": 4.0, "Keadaan_Fisik": 0.0, "Biaya_Bangunan_m2": 5000000.0, "RCN": 500000000.0, "Tahun_Penilaian": 2025, "Umur_Efektif": 4.0, "Penyusutan": 10.0, "Nilai_Bangunan": 450000000.0, "Harga_Penyesuaian": 4500000000.0, "Nilai_Bangunan_Rp": 450000000.0, "Harga_Tanah_Rp": "Rp. 4,050,000,000", "Penyesuaian_Waktu": 3.80821917808219, "Penyesuaian_Status_Kepemilikan": 0.0, "nilluas": 4204232876.71233, "nilai": 28028219.1780822, "akses": "Arteri", "Penyusutan_Rumah": 10.0, "Penyusutan_Ruko": 8.0, "Keterangan": "", "Pembanding": "", "Penyusutan_Rumah_1": 14.0, "Penyusutan_Rumah_2": 10.0, "Penyusutan_Ruko_1": 12.0, "Penyusutan_Ruko_2": 8.0, "N.Sementara": "", "Responden": ""}}]}