{"type": "FeatureCollection", "features": [{"type": "Feature", "geometry": {"type": "Point", "coordinates": [106.84894669801, -6.15407405363406]}, "properties": {"Nomor_Entry": 8, "No_Identifikasi": 1, "Surveyor": "Dianovita - YHSE20SD3J", "Tanggal_Pelaksanaan": "TK", "Kd_Jenis_Bangunan": "Jalan Selatan", "Alamat": "Jalan Selatan", "Kelurahan": "Kelurahan Gn. Sahari Selatan", "Kecamatan": "Kecamatan Kemayoran", "X": 106.84894669801, "Y": -6.15407405363406, "Status_Kepemilikan": "HM", "Jenis_Data": "Individual", "Tgl_Penawaran_Transaksi": "2025-08-14", "Harga_Penawaran_Transaksi": 0.0, "Luas_Tanah_m2": 100.0, "Lebar_Depan": 10.0, "Panjang_Kebelakang": 10.0, "Bentuk_Tanah": "Persegi/Normal", "Elevasi_Dari_Jalan": "Sama", "Letak_Tanah": "Normal", "Kelas_Jalan": "Lokal", "Lebar_Jalan": 3.0, "Aksebilitas": "Baik", "Drainase": "Baik", "Utilitas": "Air BersihListrik", "Fasilitas": "PasarRumah SakitSekolahTempat Ibadah", "Zoning": 1, "Luas_Bangunan": 0.0, "Jenis": "Komersial", "Jumlah_Lantai": 0, "Tahun_Pembuatan": 0, "Tahun_Renovasi": 0, "Kontruksi_Atas": "Beton", "Kontruksi_bawah": "Beton", "Atap": "Genteng Tanah Liat", "Dinding": "Bata Merah", "LangitLangit": "Gypsum", "Lantai": "Granit", "Pagar": "Besi Tempa", "Panjang_Pagar": 0.0, "Luas_Carport": 0.0, "Pintu_Jendela": "Aluminium", "Jumlah_Fasilitas": 4.0, "Keadaan_Fisik": 0.0, "Biaya_Bangunan_m2": 0.0, "RCN": 0.0, "Tahun_Penilaian": 2025, "Umur_Efektif": 2025.0, "Penyusutan": 0.0, "Nilai_Bangunan": 0.0, "Harga_Penyesuaian": 0.0, "Nilai_Bangunan_Rp": 0.0, "Harga_Tanah_Rp": "Rp. 0", "Penyesuaian_Waktu": 3.80821917808219, "Penyesuaian_Status_Kepemilikan": 0.0, "nilluas": 0.0, "nilai": 0.0, "akses": "Lokal", "Penyusutan_Rumah": 52.0, "Penyusutan_Ruko": 51.0, "Keterangan": "", "Pembanding": "6,7,20", "Penyusutan_Rumah_1": 52.0, "Penyusutan_Rumah_2": 50.0, "Penyusutan_Ruko_1": 51.0, "Penyusutan_Ruko_2": 49.0, "N.Sementara": "", "Responden": ""}}, {"type": "Feature", "geometry": {"type": "Point", "coordinates": [106.849224306643, -6.15438906362237]}, "properties": {"Nomor_Entry": 12, "No_Identifikasi": 1, "Surveyor": "Dianovita - YHSE20SD3J", "Tanggal_Pelaksanaan": "TK", "Kd_Jenis_Bangunan": "Jalan Sahari", "Alamat": "Jalan Sahari", "Kelurahan": "Kelurahan Gn. Sahari Selatan", "Kecamatan": "Kecamatan Kemayoran", "X": 106.849224306643, "Y": -6.15438906362237, "Status_Kepemilikan": "HM", "Jenis_Data": "Penawaran", "Tgl_Penawaran_Transaksi": "2025-08-14", "Harga_Penawaran_Transaksi": 1000000000.0, "Luas_Tanah_m2": 120.0, "Lebar_Depan": 10.0, "Panjang_Kebelakang": 12.0, "Bentuk_Tanah": "Persegi/Normal", "Elevasi_Dari_Jalan": "Sama", "Letak_Tanah": "Normal", "Kelas_Jalan": "Lokal", "Lebar_Jalan": 3.0, "Aksebilitas": "Baik", "Drainase": "Baik", "Utilitas": "Air BersihListrik", "Fasilitas": "PasarRumah SakitSekolahTempat Ibadah", "Zoning": 1, "Luas_Bangunan": 0.0, "Jenis": "Komersial", "Jumlah_Lantai": 0, "Tahun_Pembuatan": 0, "Tahun_Renovasi": 0, "Kontruksi_Atas": "Beton", "Kontruksi_bawah": "Beton", "Atap": "Beton/Dak", "Dinding": "Beton/Celcon", "LangitLangit": "Gypsum", "Lantai": "Keramik", "Pagar": "Besi Tempa", "Panjang_Pagar": 0.0, "Luas_Carport": 0.0, "Pintu_Jendela": "Aluminium", "Jumlah_Fasilitas": 4.0, "Keadaan_Fisik": 0.0, "Biaya_Bangunan_m2": 0.0, "RCN": 0.0, "Tahun_Penilaian": 2025, "Umur_Efektif": 2025.0, "Penyusutan": 0.0, "Nilai_Bangunan": 0.0, "Harga_Penyesuaian": 900000000.0, "Nilai_Bangunan_Rp": 0.0, "Harga_Tanah_Rp": "Rp. 900,000,000", "Penyesuaian_Waktu": 3.80821917808219, "Penyesuaian_Status_Kepemilikan": 0.0, "nilluas": 934273972.60274, "nilai": 7785616.43835616, "akses": "Lokal", "Penyusutan_Rumah": 34.0, "Penyusutan_Ruko": 30.0, "Keterangan": "", "Pembanding": "5,9,13", "Penyusutan_Rumah_1": 34.0, "Penyusutan_Rumah_2": 32.0, "Penyusutan_Ruko_1": 30.0, "Penyusutan_Ruko_2": 28.0, "N.Sementara": "", "Responden": ""}}, {"type": "Feature", "geometry": {"type": "Point", "coordinates": [106.848006248474, -6.15468473949438]}, "properties": {"Nomor_Entry": 14, "No_Identifikasi": 1, "Surveyor": "Dianovita - XXWDL7K697", "Tanggal_Pelaksanaan": "R", "Kd_Jenis_Bangunan": "Mall MGK Kemayoran Blok F2", "Alamat": "Mall MGK Kemayoran Blok F2", "Kelurahan": "Kelurahan Gn. Sahari Selatan", "Kecamatan": "Kecamatan Kemayoran", "X": 106.848006248474, "Y": -6.15468473949438, "Status_Kepemilikan": "HGB", "Jenis_Data": "Individual", "Tgl_Penawaran_Transaksi": "2025-08-14", "Harga_Penawaran_Transaksi": 23923000000.0, "Luas_Tanah_m2": 150.0, "Lebar_Depan": 10.0, "Panjang_Kebelakang": 15.0, "Bentuk_Tanah": "Persegi/Normal", "Elevasi_Dari_Jalan": "Sama", "Letak_Tanah": "Normal", "Kelas_Jalan": "Kolektor", "Lebar_Jalan": 10.0, "Aksebilitas": "Baik", "Drainase": "Baik", "Utilitas": "Air BersihListrikTelepon", "Fasilitas": "PasarSekolah", "Zoning": 1, "Luas_Bangunan": 100.0, "Jenis": "Komersial", "Jumlah_Lantai": 1, "Tahun_Pembuatan": 1998, "Tahun_Renovasi": 2009, "Kontruksi_Atas": "Beton", "Kontruksi_bawah": "Beton", "Atap": "Beton/Dak", "Dinding": "Beton/Celcon", "LangitLangit": "Gypsum", "Lantai": "Keramik", "Pagar": "Besi Tempa", "Panjang_Pagar": 5.0, "Luas_Carport": 3.0, "Pintu_Jendela": "Aluminium", "Jumlah_Fasilitas": 2.0, "Keadaan_Fisik": 0.0, "Biaya_Bangunan_m2": 25000000.0, "RCN": 2500000000.0, "Tahun_Penilaian": 2025, "Umur_Efektif": 20.0, "Penyusutan": 28.0, "Nilai_Bangunan": 1800000000.0, "Harga_Penyesuaian": 23923000000.0, "Nilai_Bangunan_Rp": 1800000000.0, "Harga_Tanah_Rp": "Rp. 22,123,000,000", "Penyesuaian_Waktu": 3.80821917808219, "Penyesuaian_Status_Kepemilikan": 5.0, "nilluas": 24071642328.7671, "nilai": 160477615.525114, "akses": "Kolektor", "Penyusutan_Rumah": 32.0, "Penyusutan_Ruko": 28.0, "Keterangan": "", "Pembanding": "5,9,13", "Penyusutan_Rumah_1": 34.0, "Penyusutan_Rumah_2": 32.0, "Penyusutan_Ruko_1": 30.0, "Penyusutan_Ruko_2": 28.0, "N.Sementara": "", "Responden": ""}}, {"type": "Feature", "geometry": {"type": "Point", "coordinates": [106.84978287667, -6.15391438183323]}, "properties": {"Nomor_Entry": 17, "No_Identifikasi": 1, "Surveyor": "Dianovita - YHSE20SD3J", "Tanggal_Pelaksanaan": "B", "Kd_Jenis_Bangunan": "Jalan Gunung", "Alamat": "Jalan Gunung", "Kelurahan": "Kelurahan Gn. Sahari Selatan", "Kecamatan": "Kecamatan Kemayoran", "X": 106.84978287667, "Y": -6.15391438183323, "Status_Kepemilikan": "HM", "Jenis_Data": "Penawaran", "Tgl_Penawaran_Transaksi": "2025-08-14", "Harga_Penawaran_Transaksi": 1000000000.0, "Luas_Tanah_m2": 90.0, "Lebar_Depan": 9.0, "Panjang_Kebelakang": 10.0, "Bentuk_Tanah": "Persegi/Normal", "Elevasi_Dari_Jalan": "Sama", "Letak_Tanah": "Normal", "Kelas_Jalan": "Kolektor", "Lebar_Jalan": 3.0, "Aksebilitas": "Baik", "Drainase": "Baik", "Utilitas": "Air BersihGasListrikTV KabelTelepon", "Fasilitas": "PasarRumah SakitSekolahTempat Ibadah", "Zoning": 1, "Luas_Bangunan": 80.0, "Jenis": "Komersial", "Jumlah_Lantai": 2, "Tahun_Pembuatan": 2010, "Tahun_Renovasi": 2010, "Kontruksi_Atas": "Baja,Beton", "Kontruksi_bawah": "Beton", "Atap": "Genteng Beton", "Dinding": "Bata Merah", "LangitLangit": "Gypsum,Papan Kayu", "Lantai": "Keramik", "Pagar": "Bata/Batako", "Panjang_Pagar": 9.0, "Luas_Carport": 5.0, "Pintu_Jendela": "Aluminium", "Jumlah_Fasilitas": 4.0, "Keadaan_Fisik": 0.0, "Biaya_Bangunan_m2": 3000000.0, "RCN": 240000000.0, "Tahun_Penilaian": 2025, "Umur_Efektif": 15.0, "Penyusutan": 32.0, "Nilai_Bangunan": 163200000.0, "Harga_Penyesuaian": 900000000.0, "Nilai_Bangunan_Rp": 163200000.0, "Harga_Tanah_Rp": "Rp. 736,800,000", "Penyesuaian_Waktu": 3.80821917808219, "Penyesuaian_Status_Kepemilikan": 0.0, "nilluas": 764858958.904109, "nilai": 8498432.87671233, "akses": "Kolektor", "Penyusutan_Rumah": 32.0, "Penyusutan_Ruko": 30.0, "Keterangan": "", "Pembanding": "6,7,20", "Penyusutan_Rumah_1": 34.0, "Penyusutan_Rumah_2": 32.0, "Penyusutan_Ruko_1": 30.0, "Penyusutan_Ruko_2": 28.0, "N.Sementara": "", "Responden": ""}}, {"type": "Feature", "geometry": {"type": "Point", "coordinates": [106.850392408669, -6.15464273819678]}, "properties": {"Nomor_Entry": 18, "No_Identifikasi": 1, "Surveyor": "Dianovita - V14DJK4QDH", "Tanggal_Pelaksanaan": "TK", "Kd_Jenis_Bangunan": "jl abcde", "Alamat": "jl abcde", "Kelurahan": "Kelurahan Cempaka Baru", "Kecamatan": "Kecamatan Kemayoran", "X": 106.850392408669, "Y": -6.15464273819678, "Status_Kepemilikan": "HM", "Jenis_Data": "Individual", "Tgl_Penawaran_Transaksi": "2025-08-15", "Harga_Penawaran_Transaksi": 2828000000.0, "Luas_Tanah_m2": 400.0, "Lebar_Depan": 20.0, "Panjang_Kebelakang": 20.0, "Bentuk_Tanah": "Persegi/Normal", "Elevasi_Dari_Jalan": "Sama", "Letak_Tanah": "Normal", "Kelas_Jalan": "Lokal", "Lebar_Jalan": 12.0, "Aksebilitas": "Baik", "Drainase": "Baik", "Utilitas": "Air BersihListrik", "Fasilitas": "PasarRumah SakitSekolahTempat Ibadah", "Zoning": 1, "Luas_Bangunan": 0.0, "Jenis": "Pemukiman", "Jumlah_Lantai": 0, "Tahun_Pembuatan": 0, "Tahun_Renovasi": 0, "Kontruksi_Atas": "Baja", "Kontruksi_bawah": "Beton", "Atap": "Beton/Dak", "Dinding": "Bata Merah", "LangitLangit": "Gypsum", "Lantai": "Granit", "Pagar": "Bata/Batako", "Panjang_Pagar": 0.0, "Luas_Carport": 0.0, "Pintu_Jendela": "Aluminium", "Jumlah_Fasilitas": 4.0, "Keadaan_Fisik": 0.0, "Biaya_Bangunan_m2": 0.0, "RCN": 0.0, "Tahun_Penilaian": 2025, "Umur_Efektif": 2025.0, "Penyusutan": 0.0, "Nilai_Bangunan": 0.0, "Harga_Penyesuaian": 2828000000.0, "Nilai_Bangunan_Rp": 0.0, "Harga_Tanah_Rp": "Rp. 2,828,000,000", "Penyesuaian_Waktu": 3.78082191780822, "Penyesuaian_Status_Kepemilikan": 0.0, "nilluas": 2934921643.83562, "nilai": 7337304.10958904, "akses": "Lokal", "Penyusutan_Rumah": 34.0, "Penyusutan_Ruko": 30.0, "Keterangan": "", "Pembanding": "6,7,11", "Penyusutan_Rumah_1": 34.0, "Penyusutan_Rumah_2": 32.0, "Penyusutan_Ruko_1": 30.0, "Penyusutan_Ruko_2": 28.0, "N.Sementara": "", "Responden": ""}}, {"type": "Feature", "geometry": {"type": "Point", "coordinates": [106.850354522467, -6.15426805980768]}, "properties": {"Nomor_Entry": 21, "No_Identifikasi": 1, "Surveyor": "Dianovita - V14DJK4QDH", "Tanggal_Pelaksanaan": "TK", "Kd_Jenis_Bangunan": "jalan terus", "Alamat": "jalan terus", "Kelurahan": "Kelurahan Kemayoran", "Kecamatan": "Kecamatan Kemayoran", "X": 106.850354522467, "Y": -6.15426805980768, "Status_Kepemilikan": "HM", "Jenis_Data": "Individual", "Tgl_Penawaran_Transaksi": "2025-08-14", "Harga_Penawaran_Transaksi": 470000000.0, "Luas_Tanah_m2": 81.0, "Lebar_Depan": 9.0, "Panjang_Kebelakang": 9.0, "Bentuk_Tanah": "Persegi/Normal", "Elevasi_Dari_Jalan": "Sama", "Letak_Tanah": "Normal", "Kelas_Jalan": "Kolektor", "Lebar_Jalan": 8.0, "Aksebilitas": "Baik", "Drainase": "Baik", "Utilitas": "Air BersihListrikTelepon", "Fasilitas": "PasarTempat Ibadah", "Zoning": 1, "Luas_Bangunan": 0.0, "Jenis": "Pemukiman", "Jumlah_Lantai": 0, "Tahun_Pembuatan": 0, "Tahun_Renovasi": 0, "Kontruksi_Atas": "Beton", "Kontruksi_bawah": "Beton", "Atap": "Genteng Beton", "Dinding": "Beton/Celcon", "LangitLangit": "Gypsum", "Lantai": "Keramik", "Pagar": "Beton", "Panjang_Pagar": 0.0, "Luas_Carport": 0.0, "Pintu_Jendela": "Kayu", "Jumlah_Fasilitas": 2.0, "Keadaan_Fisik": 0.0, "Biaya_Bangunan_m2": 0.0, "RCN": 0.0, "Tahun_Penilaian": 2025, "Umur_Efektif": 2025.0, "Penyusutan": 0.0, "Nilai_Bangunan": 0.0, "Harga_Penyesuaian": 470000000.0, "Nilai_Bangunan_Rp": 0.0, "Harga_Tanah_Rp": "Rp. 470,000,000", "Penyesuaian_Waktu": 3.80821917808219, "Penyesuaian_Status_Kepemilikan": 0.0, "nilluas": 487898630.136986, "nilai": 6023439.8782344, "akses": "Kolektor", "Penyusutan_Rumah": 0.0, "Penyusutan_Ruko": 0.0, "Keterangan": "", "Pembanding": "6,7,20", "Penyusutan_Rumah_1": 0.0, "Penyusutan_Rumah_2": 0.0, "Penyusutan_Ruko_1": 0.0, "Penyusutan_Ruko_2": 0.0, "N.Sementara": "", "Responden": ""}}]}